[{"OBJECT_NAME":"IRIDIUM 173","OBJECT_ID":"2019-002D","EPOCH":"2026-03-09T23:25:14.922624","MEAN_MOTION":14.34217176,"ECCENTRICITY":0.00020878,"INCLINATION":86.3979,"RA_OF_ASC_NODE":35.0129,"ARG_OF_PERICENTER":83.8645,"MEAN_ANOMALY":276.2788,"EPHEMERIS_TYPE":0,"CLASSIFICATION_TYPE":"U","NORAD_CAT_ID":43925,"ELEMENT_SET_NO":999,"REV_AT_EPOCH":37473,"BSTAR":2.1469625e-5,"MEAN_MOTION_DOT":8.0e-7,"MEAN_MOTION_DDOT":0},{"OBJECT_NAME":"NOAA 16 DEB","OBJECT_ID":"2000-055MH","EPOCH":"2026-03-08T16:52:13.701504","MEAN_MOTION":14.31351969,"ECCENTRICITY":0.00157096,"INCLINATION":98.7568,"RA_OF_ASC_NODE":166.6814,"ARG_OF_PERICENTER":259.9354,"MEAN_ANOMALY":100.0056,"EPHEMERIS_TYPE":0,"CLASSIFICATION_TYPE":"U","NORAD_CAT_ID":41509,"ELEMENT_SET_NO":999,"REV_AT_EPOCH":51540,"BSTAR":0.002351783,"MEAN_MOTION_DOT":6.198e-5,"MEAN_MOTION_DDOT":0}]
